{
  "type": "FeatureCollection",
  "features": [
    {
      "type": "Feature",
      "properties": {
        "norad_id": 34784,
        "name": "COSMOS 2251 DEB",
        "group": "cosmos-2251-debris",
        "lat": -60.19440828384029,
        "lon": 161.70000075898145,
        "alt_km": 717.436428219291,
        "timestamp": "2025-12-19T08:58:49.732208+00:00",
        "meta_object_name": "COSMOS 2251 DEB",
        "meta_object_id": "1993-036AAM",
        "meta_epoch": "2025-12-18T22:00:27.495360",
        "meta_mean_motion": 14.60805851,
        "meta_eccentricity": 0.00492299,
        "meta_inclination": 74.0074,
        "meta_ra_of_asc_node": 312.5311,
        "meta_arg_of_pericenter": 119.9872,
        "meta_mean_anomaly": 240.6194,
        "meta_ephemeris_type": 0,
        "meta_classification_type": "U",
        "meta_norad_cat_id": 34784,
        "meta_element_set_no": 999,
        "meta_rev_at_epoch": 88625,
        "meta_bstar": 0.0003574958,
        "meta_mean_motion_dot": 1.746e-05,
        "meta_mean_motion_ddot": 0,
        "tle_line1": "1 34784U 93036AAM 25352.91698490  .00001746  00000+0  35750-3 0  9990",
        "tle_line2": "2 34784  74.0074 312.5311 0049229 119.9872 240.6194 14.60805851886252"
      },
      "geometry": {
        "type": "Point",
        "coordinates": [
          161.70000075898145,
          -60.19440828384029
        ]
      }
    },
    {
      "type": "Feature",
      "properties": {
        "norad_id": 34790,
        "name": "COSMOS 2251 DEB",
        "group": "cosmos-2251-debris",
        "lat": -44.346840089828945,
        "lon": 67.99018516043944,
        "alt_km": 785.3619424476165,
        "timestamp": "2025-12-19T08:58:49.732219+00:00",
        "meta_object_name": "COSMOS 2251 DEB",
        "meta_object_id": "1993-036AAT",
        "meta_epoch": "2025-12-17T17:25:06.466656",
        "meta_mean_motion": 14.24650914,
        "meta_eccentricity": 0.01005759,
        "meta_inclination": 74.0544,
        "meta_ra_of_asc_node": 234.7292,
        "meta_arg_of_pericenter": 295.3819,
        "meta_mean_anomaly": 121.2605,
        "meta_ephemeris_type": 0,
        "meta_classification_type": "U",
        "meta_norad_cat_id": 34790,
        "meta_element_set_no": 999,
        "meta_rev_at_epoch": 86644,
        "meta_bstar": 0.00056948117,
        "meta_mean_motion_dot": 1.369e-05,
        "meta_mean_motion_ddot": 0,
        "tle_line1": "1 34790U 93036AAT 25351.72576929  .00001369  00000+0  56948-3 0  9990",
        "tle_line2": "2 34790  74.0544 234.7292 0100575 295.3819 121.2605 14.24650914866444"
      },
      "geometry": {
        "type": "Point",
        "coordinates": [
          67.99018516043944,
          -44.346840089828945
        ]
      }
    },
    {
      "type": "Feature",
      "properties": {
        "norad_id": 34792,
        "name": "COSMOS 2251 DEB",
        "group": "cosmos-2251-debris",
        "lat": -22.66147664479775,
        "lon": -16.010088151321824,
        "alt_km": 705.2383686450285,
        "timestamp": "2025-12-19T08:58:49.732228+00:00",
        "meta_object_name": "COSMOS 2251 DEB",
        "meta_object_id": "1993-036AAV",
        "meta_epoch": "2025-12-18T21:11:56.751072",
        "meta_mean_motion": 14.56003534,
        "meta_eccentricity": 0.00124553,
        "meta_inclination": 74.0168,
        "meta_ra_of_asc_node": 158.0484,
        "meta_arg_of_pericenter": 252.5334,
        "meta_mean_anomaly": 259.0789,
        "meta_ephemeris_type": 0,
        "meta_classification_type": "U",
        "meta_norad_cat_id": 34792,
        "meta_element_set_no": 999,
        "meta_rev_at_epoch": 87739,
        "meta_bstar": 0.00077390996,
        "meta_mean_motion_dot": 3.382e-05,
        "meta_mean_motion_ddot": 0,
        "tle_line1": "1 34792U 93036AAV 25352.88329573  .00003382  00000+0  77391-3 0  9993",
        "tle_line2": "2 34792  74.0168 158.0484 0012455 252.5334 259.0789 14.56003534877399"
      },
      "geometry": {
        "type": "Point",
        "coordinates": [
          -16.010088151321824,
          -22.66147664479775
        ]
      }
    },
    {
      "type": "Feature",
      "properties": {
        "norad_id": 34793,
        "name": "COSMOS 2251 DEB",
        "group": "cosmos-2251-debris",
        "lat": -66.03875747076519,
        "lon": -162.0956012204924,
        "alt_km": 777.4196747656306,
        "timestamp": "2025-12-19T08:58:49.732239+00:00",
        "meta_object_name": "COSMOS 2251 DEB",
        "meta_object_id": "1993-036AAW",
        "meta_epoch": "2025-12-18T20:30:34.942176",
        "meta_mean_motion": 14.38654252,
        "meta_eccentricity": 0.00505542,
        "meta_inclination": 74.0022,
        "meta_ra_of_asc_node": 239.0702,
        "meta_arg_of_pericenter": 31.6122,
        "meta_mean_anomaly": 86.9739,
        "meta_ephemeris_type": 0,
        "meta_classification_type": "U",
        "meta_norad_cat_id": 34793,
        "meta_element_set_no": 999,
        "meta_rev_at_epoch": 87418,
        "meta_bstar": 0.00018932012,
        "meta_mean_motion_dot": 5.62e-06,
        "meta_mean_motion_ddot": 0,
        "tle_line1": "1 34793U 93036AAW 25352.85457109  .00000562  00000+0  18932-3 0  9991",
        "tle_line2": "2 34793  74.0022 239.0702 0050554  31.6122  86.9739 14.38654252874180"
      },
      "geometry": {
        "type": "Point",
        "coordinates": [
          -162.0956012204924,
          -66.03875747076519
        ]
      }
    },
    {
      "type": "Feature",
      "properties": {
        "norad_id": 34796,
        "name": "COSMOS 2251 DEB",
        "group": "cosmos-2251-debris",
        "lat": -72.12851228316119,
        "lon": 86.55008777607853,
        "alt_km": 684.045686704816,
        "timestamp": "2025-12-19T08:58:49.732249+00:00",
        "meta_object_name": "COSMOS 2251 DEB",
        "meta_object_id": "1993-036AAZ",
        "meta_epoch": "2025-12-18T13:39:48.398688",
        "meta_mean_motion": 14.48716827,
        "meta_eccentricity": 0.01002628,
        "meta_inclination": 74.0291,
        "meta_ra_of_asc_node": 205.4145,
        "meta_arg_of_pericenter": 306.2489,
        "meta_mean_anomaly": 80.3667,
        "meta_ephemeris_type": 0,
        "meta_classification_type": "U",
        "meta_norad_cat_id": 34796,
        "meta_element_set_no": 999,
        "meta_rev_at_epoch": 88112,
        "meta_bstar": 0.00042663787,
        "meta_mean_motion_dot": 1.684e-05,
        "meta_mean_motion_ddot": 0,
        "tle_line1": "1 34796U 93036AAZ 25352.56931017  .00001684  00000+0  42664-3 0  9992",
        "tle_line2": "2 34796  74.0291 205.4145 0100262 306.2489  80.3667 14.48716827881126"
      },
      "geometry": {
        "type": "Point",
        "coordinates": [
          86.55008777607853,
          -72.12851228316119
        ]
      }
    },
    {
      "type": "Feature",
      "properties": {
        "norad_id": 34797,
        "name": "COSMOS 2251 DEB",
        "group": "cosmos-2251-debris",
        "lat": -62.4640854763294,
        "lon": -58.931580296285105,
        "alt_km": 720.9896844160776,
        "timestamp": "2025-12-19T08:58:49.732259+00:00",
        "meta_object_name": "COSMOS 2251 DEB",
        "meta_object_id": "1993-036ABA",
        "meta_epoch": "2025-12-18T13:32:08.695392",
        "meta_mean_motion": 14.42903821,
        "meta_eccentricity": 0.00713736,
        "meta_inclination": 73.9783,
        "meta_ra_of_asc_node": 89.1324,
        "meta_arg_of_pericenter": 201.7042,
        "meta_mean_anomaly": 158.1087,
        "meta_ephemeris_type": 0,
        "meta_classification_type": "U",
        "meta_norad_cat_id": 34797,
        "meta_element_set_no": 999,
        "meta_rev_at_epoch": 87499,
        "meta_bstar": 0.0016985088,
        "meta_mean_motion_dot": 5.83e-05,
        "meta_mean_motion_ddot": 0,
        "tle_line1": "1 34797U 93036ABA 25352.56398953  .00005830  00000+0  16985-2 0  9992",
        "tle_line2": "2 34797  73.9783  89.1324 0071373 201.7042 158.1087 14.42903821874994"
      },
      "geometry": {
        "type": "Point",
        "coordinates": [
          -58.931580296285105,
          -62.4640854763294
        ]
      }
    },
    {
      "type": "Feature",
      "properties": {
        "norad_id": 34814,
        "name": "COSMOS 2251 DEB",
        "group": "cosmos-2251-debris",
        "lat": 73.64634315219588,
        "lon": 33.04882834513909,
        "alt_km": 777.4410136845354,
        "timestamp": "2025-12-19T08:58:49.732269+00:00",
        "meta_object_name": "COSMOS 2251 DEB",
        "meta_object_id": "1993-036ABD",
        "meta_epoch": "2025-12-18T21:00:35.087040",
        "meta_mean_motion": 14.36919889,
        "meta_eccentricity": 0.00558088,
        "meta_inclination": 73.8957,
        "meta_ra_of_asc_node": 314.0585,
        "meta_arg_of_pericenter": 202.3955,
        "meta_mean_anomaly": 186.2461,
        "meta_ephemeris_type": 0,
        "meta_classification_type": "U",
        "meta_norad_cat_id": 34814,
        "meta_element_set_no": 999,
        "meta_rev_at_epoch": 87421,
        "meta_bstar": 0.00056195678,
        "meta_mean_motion_dot": 1.666e-05,
        "meta_mean_motion_ddot": 0,
        "tle_line1": "1 34814U 93036ABD 25352.87540610  .00001666  00000+0  56196-3 0  9997",
        "tle_line2": "2 34814  73.8957 314.0585 0055808 202.3955 186.2461 14.36919889874217"
      },
      "geometry": {
        "type": "Point",
        "coordinates": [
          33.04882834513909,
          73.64634315219588
        ]
      }
    }
  ]
}